{
  "norad_id": 47378,
  "name": "STARLINK-2098",
  "history": [
    {
      "epoch": "2026-03-28T19:27:51.322752",
      "apogee_km": 475.8416915202124,
      "perigee_km": 474.50954461351284,
      "latitude_deg": -23.156231172219936,
      "longitude_deg": 75.6570252799429,
      "semi_major_axis_km": 6853.312618066862,
      "eccentricity": 9.719e-05,
      "inclination_deg": 53.1582,
      "raan_deg": 285.3482,
      "arg_perigee_deg": 78.0318,
      "mean_anomaly_deg": 282.0792,
      "mean_motion_rev_day": 15.30213213
    }
  ]
}